CCSDS_OMM_VERS = 2.0
CREATION_DATE  = 
ORIGINATOR     = 

OBJECT_NAME    = TITAN 4B R/B
OBJECT_ID      = 2000-047B
CENTER_NAME    = EARTH
REF_FRAME      = TEME
TIME_SYSTEM    = UTC
MEAN_ELEMENT_THEORY = SGP/SGP4

EPOCH          = 2025-11-14T07:13:02.769600
MEAN_MOTION    = 15.08494715
ECCENTRICITY   = .00414785
INCLINATION    = 67.9917
RA_OF_ASC_NODE = 4.7097
ARG_OF_PERICENTER = 177.8293
MEAN_ANOMALY   = 182.3044

EPHEMERIS_TYPE = 0
CLASSIFICATION_TYPE = U
NORAD_CAT_ID   = 26474
ELEMENT_SET_NO = 999
REV_AT_EPOCH   = 37550
BSTAR          = .39366865E-3
MEAN_MOTION_DOT = .6146E-4
MEAN_MOTION_DDOT = 0

CCSDS_OMM_VERS = 2.0
CREATION_DATE  = 
ORIGINATOR     = 

OBJECT_NAME    = ENVISAT
OBJECT_ID      = 2002-009A
CENTER_NAME    = EARTH
REF_FRAME      = TEME
TIME_SYSTEM    = UTC
MEAN_ELEMENT_THEORY = SGP/SGP4

EPOCH          = 2025-11-14T08:06:13.699584
MEAN_MOTION    = 14.38984024
ECCENTRICITY   = .00013025
INCLINATION    = 98.3553
RA_OF_ASC_NODE = 269.8050
ARG_OF_PERICENTER = 82.2997
MEAN_ANOMALY   = 32.5759

EPHEMERIS_TYPE = 0
CLASSIFICATION_TYPE = U
NORAD_CAT_ID   = 27386
ELEMENT_SET_NO = 999
REV_AT_EPOCH   = 24258
BSTAR          = .12829171E-3
MEAN_MOTION_DOT = .353E-5
MEAN_MOTION_DDOT = 0

CCSDS_OMM_VERS = 2.0
CREATION_DATE  = 
ORIGINATOR     = 

OBJECT_NAME    = IDEFIX & ARIANE 42P R/B
OBJECT_ID      = 2002-021B
CENTER_NAME    = EARTH
REF_FRAME      = TEME
TIME_SYSTEM    = UTC
MEAN_ELEMENT_THEORY = SGP/SGP4

EPOCH          = 2025-11-14T06:19:58.159776
MEAN_MOTION    = 14.30920205
ECCENTRICITY   = .00119653
INCLINATION    = 98.5741
RA_OF_ASC_NODE = 253.3309
ARG_OF_PERICENTER = 162.0558
MEAN_ANOMALY   = 198.1050

EPHEMERIS_TYPE = 0
CLASSIFICATION_TYPE = U
NORAD_CAT_ID   = 27422
ELEMENT_SET_NO = 999
REV_AT_EPOCH   = 22751
BSTAR          = .29496454E-3
MEAN_MOTION_DOT = .732E-5
MEAN_MOTION_DDOT = 0

CCSDS_OMM_VERS = 2.0
CREATION_DATE  = 
ORIGINATOR     = 

OBJECT_NAME    = AQUA
OBJECT_ID      = 2002-022A
CENTER_NAME    = EARTH
REF_FRAME      = TEME
TIME_SYSTEM    = UTC
MEAN_ELEMENT_THEORY = SGP/SGP4

EPOCH          = 2025-11-14T06:58:41.394432
MEAN_MOTION    = 14.61712372
ECCENTRICITY   = .0000781
INCLINATION    = 98.3990
RA_OF_ASC_NODE = 278.7161
ARG_OF_PERICENTER = 57.8422
MEAN_ANOMALY   = 48.2653

EPHEMERIS_TYPE = 0
CLASSIFICATION_TYPE = U
NORAD_CAT_ID   = 27424
ELEMENT_SET_NO = 999
REV_AT_EPOCH   = 25187
BSTAR          = .51363374E-3
MEAN_MOTION_DOT = .251E-4
MEAN_MOTION_DDOT = 0

CCSDS_OMM_VERS = 2.0
CREATION_DATE  = 
ORIGINATOR     = 

OBJECT_NAME    = CZ-4B R/B
OBJECT_ID      = 2002-024C
CENTER_NAME    = EARTH
REF_FRAME      = TEME
TIME_SYSTEM    = UTC
MEAN_ELEMENT_THEORY = SGP/SGP4

EPOCH          = 2025-11-14T01:28:35.308128
MEAN_MOTION    = 14.14519513
ECCENTRICITY   = .00499727
INCLINATION    = 98.9044
RA_OF_ASC_NODE = 6.9272
ARG_OF_PERICENTER = 352.5461
MEAN_ANOMALY   = 31.5692

EPHEMERIS_TYPE = 0
CLASSIFICATION_TYPE = U
NORAD_CAT_ID   = 27432
ELEMENT_SET_NO = 999
REV_AT_EPOCH   = 21289
BSTAR          = .11837725E-3
MEAN_MOTION_DOT = .185E-5
MEAN_MOTION_DDOT = 0

CCSDS_OMM_VERS = 2.0
CREATION_DATE  = 
ORIGINATOR     = 

OBJECT_NAME    = MIDORI II (ADEOS-II)
OBJECT_ID      = 2002-056A
CENTER_NAME    = EARTH
REF_FRAME      = TEME
TIME_SYSTEM    = UTC
MEAN_ELEMENT_THEORY = SGP/SGP4

EPOCH          = 2025-11-14T06:59:55.491072
MEAN_MOTION    = 14.29177557
ECCENTRICITY   = .00012834
INCLINATION    = 98.7591
RA_OF_ASC_NODE = 271.1056
ARG_OF_PERICENTER = 32.3606
MEAN_ANOMALY   = 327.7654

EPHEMERIS_TYPE = 0
CLASSIFICATION_TYPE = U
NORAD_CAT_ID   = 27597
ELEMENT_SET_NO = 999
REV_AT_EPOCH   = 19381
BSTAR          = .28858582E-3
MEAN_MOTION_DOT = .687E-5
MEAN_MOTION_DDOT = 0

CCSDS_OMM_VERS = 2.0
CREATION_DATE  = 
ORIGINATOR     = 

OBJECT_NAME    = H-2A R/B
OBJECT_ID      = 2002-056E
CENTER_NAME    = EARTH
REF_FRAME      = TEME
TIME_SYSTEM    = UTC
MEAN_ELEMENT_THEORY = SGP/SGP4

EPOCH          = 2025-11-13T20:22:28.016832
MEAN_MOTION    = 14.33646069
ECCENTRICITY   = .00709033
INCLINATION    = 98.3021
RA_OF_ASC_NODE = 277.7633
ARG_OF_PERICENTER = 145.9560
MEAN_ANOMALY   = 235.4767

EPHEMERIS_TYPE = 0
CLASSIFICATION_TYPE = U
NORAD_CAT_ID   = 27601
ELEMENT_SET_NO = 999
REV_AT_EPOCH   = 19751
BSTAR          = .27510432E-3
MEAN_MOTION_DOT = .743E-5
MEAN_MOTION_DDOT = 0

CCSDS_OMM_VERS = 2.0
CREATION_DATE  = 
ORIGINATOR     = 

OBJECT_NAME    = CZ-4B R/B
OBJECT_ID      = 2003-049C
CENTER_NAME    = EARTH
REF_FRAME      = TEME
TIME_SYSTEM    = UTC
MEAN_ELEMENT_THEORY = SGP/SGP4

EPOCH          = 2025-11-13T10:26:57.390144
MEAN_MOTION    = 14.54870224
ECCENTRICITY   = .0047377
INCLINATION    = 98.6770
RA_OF_ASC_NODE = 302.8957
ARG_OF_PERICENTER = 225.6169
MEAN_ANOMALY   = 134.1142

EPHEMERIS_TYPE = 0
CLASSIFICATION_TYPE = U
NORAD_CAT_ID   = 28059
ELEMENT_SET_NO = 999
REV_AT_EPOCH   = 16969
BSTAR          = .24814E-3
MEAN_MOTION_DOT = .103E-4
MEAN_MOTION_DDOT = 0

CCSDS_OMM_VERS = 2.0
CREATION_DATE  = 
ORIGINATOR     = 

OBJECT_NAME    = CZ-2C R/B
OBJECT_ID      = 2004-012C
CENTER_NAME    = EARTH
REF_FRAME      = TEME
TIME_SYSTEM    = UTC
MEAN_ELEMENT_THEORY = SGP/SGP4

EPOCH          = 2025-11-14T02:07:51.532032
MEAN_MOTION    = 15.53056923
ECCENTRICITY   = .00190924
INCLINATION    = 97.7482
RA_OF_ASC_NODE = 8.3952
ARG_OF_PERICENTER = 18.8762
MEAN_ANOMALY   = 341.3193

EPHEMERIS_TYPE = 0
CLASSIFICATION_TYPE = U
NORAD_CAT_ID   = 28222
ELEMENT_SET_NO = 999
REV_AT_EPOCH   = 18627
BSTAR          = .10160173E-2
MEAN_MOTION_DOT = .64283E-3
MEAN_MOTION_DDOT = 0

CCSDS_OMM_VERS = 2.0
CREATION_DATE  = 
ORIGINATOR     = 

OBJECT_NAME    = SL-16 R/B
OBJECT_ID      = 2004-021B
CENTER_NAME    = EARTH
REF_FRAME      = TEME
TIME_SYSTEM    = UTC
MEAN_ELEMENT_THEORY = SGP/SGP4

EPOCH          = 2025-11-13T16:47:36.007584
MEAN_MOTION    = 14.14573215
ECCENTRICITY   = .00065947
INCLINATION    = 70.9979
RA_OF_ASC_NODE = 115.9043
ARG_OF_PERICENTER = 229.9890
MEAN_ANOMALY   = 130.0654

EPHEMERIS_TYPE = 0
CLASSIFICATION_TYPE = U
NORAD_CAT_ID   = 28353
ELEMENT_SET_NO = 999
REV_AT_EPOCH   = 10643
BSTAR          = .21058573E-3
MEAN_MOTION_DOT = .357E-5
MEAN_MOTION_DDOT = 0

CCSDS_OMM_VERS = 2.0
CREATION_DATE  = 
ORIGINATOR     = 

OBJECT_NAME    = CZ-4B R/B
OBJECT_ID      = 2004-035C
CENTER_NAME    = EARTH
REF_FRAME      = TEME
TIME_SYSTEM    = UTC
MEAN_ELEMENT_THEORY = SGP/SGP4

EPOCH          = 2025-11-14T01:21:37.052640
MEAN_MOTION    = 15.26742377
ECCENTRICITY   = .00344255
INCLINATION    = 97.3652
RA_OF_ASC_NODE = 348.7914
ARG_OF_PERICENTER = 21.4551
MEAN_ANOMALY   = 338.8122

EPHEMERIS_TYPE = 0
CLASSIFICATION_TYPE = U
NORAD_CAT_ID   = 28415
ELEMENT_SET_NO = 999
REV_AT_EPOCH   = 16225
BSTAR          = .68853477E-3
MEAN_MOTION_DOT = .18371E-3
MEAN_MOTION_DDOT = 0

CCSDS_OMM_VERS = 2.0
CREATION_DATE  = 
ORIGINATOR     = 

OBJECT_NAME    = CZ-2C R/B
OBJECT_ID      = 2004-046B
CENTER_NAME    = EARTH
REF_FRAME      = TEME
TIME_SYSTEM    = UTC
MEAN_ELEMENT_THEORY = SGP/SGP4

EPOCH          = 2025-11-14T06:42:30.670560
MEAN_MOTION    = 14.26922432
ECCENTRICITY   = .01403514
INCLINATION    = 98.1962
RA_OF_ASC_NODE = 235.4306
ARG_OF_PERICENTER = 135.7955
MEAN_ANOMALY   = 225.4543

EPHEMERIS_TYPE = 0
CLASSIFICATION_TYPE = U
NORAD_CAT_ID   = 28480
ELEMENT_SET_NO = 999
REV_AT_EPOCH   = 9204
BSTAR          = .165675E-3
MEAN_MOTION_DOT = .407E-5
MEAN_MOTION_DDOT = 0

