TITAN 4B R/B            
1 26474U 00047B   25318.30072650  .00006146  00000+0  39367-3 0  9993
2 26474  67.9917   4.7097 0041478 177.8293 182.3044 15.08494715375508
ENVISAT                 
1 27386U 02009A   25318.33765856  .00000353  00000+0  12829-3 0  9994
2 27386  98.3553 269.8050 0001302  82.2997  32.5759 14.38984024242589
IDEFIX & ARIANE 42P R/B 
1 27422U 02021B   25318.26386759  .00000732  00000+0  29496-3 0  9991
2 27422  98.5741 253.3309 0011965 162.0558 198.1050 14.30920205227514
AQUA                    
1 27424U 02022A   25318.29075688  .00002510  00000+0  51363-3 0  9997
2 27424  98.3990 278.7161 0000781  57.8422  48.2653 14.61712372251870
CZ-4B R/B               
1 27432U 02024C   25318.06151977  .00000185  00000+0  11838-3 0  9998
2 27432  98.9044   6.9272 0049972 352.5461  31.5692 14.14519513212899
MIDORI II (ADEOS-II)    
1 27597U 02056A   25318.29161448  .00000687  00000+0  28859-3 0  9992
2 27597  98.7591 271.1056 0001283  32.3606 327.7654 14.29177557193811
H-2A R/B                
1 27601U 02056E   25317.84893538  .00000743  00000+0  27510-3 0  9996
2 27601  98.3021 277.7633 0070903 145.9560 235.4767 14.33646069197514
CZ-4B R/B               
1 28059U 03049C   25317.43538646  .00001030  00000+0  24814-3 0  9992
2 28059  98.6770 302.8957 0047377 225.6169 134.1142 14.54870224169690
CZ-2C R/B               
1 28222U 04012C   25318.08879088  .00064283  00000+0  10160-2 0  9992
2 28222  97.7482   8.3952 0019092  18.8762 341.3193 15.53056923186272
SL-16 R/B               
1 28353U 04021B   25317.69972231  .00000357  00000+0  21059-3 0  9999
2 28353  70.9979 115.9043 0006594 229.9890 130.0654 14.14573215106436
CZ-4B R/B               
1 28415U 04035C   25318.05667885  .00018371  00000+0  68853-3 0  9998
2 28415  97.3652 348.7914 0034425  21.4551 338.8122 15.26742377162253
CZ-2C R/B               
1 28480U 04046B   25318.27952165  .00000407  00000+0  16568-3 0  9991
2 28480  98.1962 235.4306 0140351 135.7955 225.4543 14.26922432 92046
